#aV2008 12 18  0  0   .00000000      96 DD+AD WGS84 FIT  NGA
## 1510 345600.00000000   900.00000000 54818  .0000000000000
+   31     2  3  4  5  6  7  8  9 10 11 12 13 14 15 16 17 18
+         19 20 21 22 23 24 25 26 27 28 29 30 31 32  0  0  0
+          0  0  0  0  0  0  0  0  0  0  0  0  0  0  0  0  0
+          0  0  0  0  0  0  0  0  0  0  0  0  0  0  0  0  0
+          0  0  0  0  0  0  0  0  0  0  0  0  0  0  0  0  0
++         0  0  0  0  0  0  0  0  0  0  0  0  0  0  0  0  0
++         0  0  0  0  0  0  0  0  0  0  0  0  0  0  0  0  0
++         0  0  0  0  0  0  0  0  0  0  0  0  0  0  0  0  0
++         0  0  0  0  0  0  0  0  0  0  0  0  0  0  0  0  0
++         0  0  0  0  0  0  0  0  0  0  0  0  0  0  0  0  0
%c cc cc ccc ccc cccc cccc cccc cccc ccccc ccccc ccccc ccccc
%c cc cc ccc ccc cccc cccc cccc cccc ccccc ccccc ccccc ccccc
%f  0.0000000  0.000000000  0.00000000000  0.000000000000000
%f  0.0000000  0.000000000  0.00000000000  0.000000000000000
%i    0    0    0    0      0      0      0      0         0
%i    0    0    0    0      0      0      0      0         0
/*      NGA, ST. LOUIS,MO.                                  
/*   EPHEMERIS COMPUTED FROM  3 DAYS OF DATA                
/* CCCCCCCCCCCCCCCCCCCCCCCCCCCCCCCCCCCCCCCCCCCCCCCCCCCCCCCCC
/* CCCCCCCCCCCCCCCCCCCCCCCCCCCCCCCCCCCCCCCCCCCCCCCCCCCCCCCCC
*  2008 12 18  9 45   .00000000                                                 
P  2 -17082.219809  13534.813850  14783.996550    166.395939                    
V  2 -19398.030258    226.070583 -22806.453344      -.021817                    
P  3  10291.206607 -23750.329136   4751.318408    326.375945                    
V  3   2280.494835   7369.559478  30385.654574       .053260                    
P  4 -25967.787967   5707.061531   2942.081949   -268.720641                    
V  4  -4236.926284  -2542.235405 -30784.752501      -.128682                    
P  5  14330.075810  21628.211141  -6276.159762   -382.993095                    
V  5  -7427.254638  -3398.163137 -29966.174772      -.800063                    
P  6  14118.302450 -20807.278433   8711.569342    118.686516                    
V  6   -431.022866  11355.965436  28442.722677      -.099778                    
P  7 -19894.268746  -8102.237022  15673.331220     23.539842                    
V  7  19423.579596  -4611.101826  22137.459787      -.000229                    
P  8 -26504.513316   -441.888239   4094.463123   -182.601693                    
V  8   5037.614669  -1994.128629  31434.975171      -.015678                    
P  9   3472.658769  14831.993521 -22403.439453     30.310418                    
V  9 -26437.939313   4760.389934   -863.735390       .020297                    
P 10  -5400.117840  16220.214340  20091.633715     -8.442436                    
V 10 -16525.261268 -20021.002711  11968.316638      -.003227                    
P 11  -6531.623707 -15509.396804 -20745.612851     12.967442                    
V 11  24694.918020  -8896.127458   -777.421841      -.010369                    
P 12  10154.630409  22929.406131  -8831.047447   -332.926079                    
V 12  -8812.712295  -7429.475776 -29084.701646       .029016                    
P 13  -8444.245294 -13964.067248  20845.202207    281.532392                    
V 13  11740.307912 -23919.304460 -11196.360592       .014208                    
P 14  16981.651137  -8544.927703 -18382.103654   -180.321808                    
V 14  -8431.779235  22031.050755 -18020.559340       .050183                    
P 15  -5431.954592  25333.472196  -5719.988181   -228.487996                    
V 15  -5313.328475   5794.794048  30573.872383      -.059216                    
P 16  10564.829029 -10957.640054  21811.531826     88.178514                    
V 16  16853.752575  21795.250809   3006.001464      -.025434                    
P 17 -17058.123911   5245.664531 -19566.823034     42.275009                    
V 17   8392.311528 -23594.322881 -13788.867491       .007623                    
P 18  19628.918138  15597.750133  -9092.684535   -101.913669                    
V 18   4731.449904  11109.326843  28250.736893       .037600                    
P 19   6099.718607 -24607.528333  -7467.133051     34.802249                    
V 19   6863.686509  -7371.096328  29863.156275      -.003640                    
P 20 -12665.189478 -22551.316158  -6266.187229     96.085305                    
V 20   7380.591906   4047.493004 -30006.317108      -.010355                    
P 21  23534.471058   5855.701433  11736.607822     37.877877                    
V 21 -13988.122192   4257.404469  25807.669178      -.016471                    
P 22  19089.636038   4237.501574 -17839.774592    207.953728                    
V 22  11993.810600  19727.864448  17306.933099      -.006204                    
P 23  -3091.751926 -21012.791986  15728.984187    382.995917                    
V 23   9350.345358 -17947.121253 -22332.892874       .009547                    
P 24  10279.277621  13655.507193  20403.554222    150.277120                    
V 24 -25479.191035   3521.873871  10823.535789       .031102                    
P 25 -13497.890592 -11116.853684  20297.918306    109.059682                    
V 25  24068.046706  -6893.579962  12628.088253       .283148                    
P 26 -10356.705713  24130.525299  -1048.285547     27.462236                    
V 26  -2330.009562   -267.231395  32781.433852       .039001                    
P 27 -25460.105681   -668.844972   8447.490332      8.880160                    
V 27   9144.687824  -3950.828517  29519.331955       .030620                    
P 28 -19363.378086  -6790.173451 -16640.052914    -23.752794                    
V 28 -11648.660481 -18459.149186  20262.061549       .000524                    
P 29   8839.044955  15128.631360  20074.420714    -24.132073                    
V 29 -10916.374126  22803.078951 -12406.123597       .023407                    
P 30  18483.304892  18934.028285   2418.623919    114.316024                    
V 30    -59.961816   4660.619879 -31279.250335       .023350                    
P 31  24761.695840  -7825.744431   6067.294154    -43.971397                    
V 31   7649.717366   1184.626729 -30659.625215      -.016328                    
P 32  -5497.951469 -23090.443523 -11723.871307    309.104355                    
V 32  10309.871451  11712.477114 -26726.182612      -.020784                    
EOF
